NORAD_CAT_ID,OBJECT_NAME,OBJECT_TYPE,EPOCH,MEAN_MOTION,ECCENTRICITY,INCLINATION,RA_OF_ASC_NODE,ARG_OF_PERICENTER,MEAN_ANOMALY,BSTAR,MEAN_MOTION_DOT,MEAN_MOTION_DDOT,TLE_LINE0,TLE_LINE1,TLE_LINE2,SEMIMAJOR_AXIS,PERIOD,APOGEE,PERIGEE,DECAYED
53630.0,STARLINK-4598,PAYLOAD,2023-10-22 08:25:30,15.0884986,0.0001314,53.2167,166.807,67.513,292.6002,1.8243e-05,3e-08,0.0,0 STARLINK-4598,1 53630U 22104AU  23295.35104803  .00000003  00000-0  18243-4 0  9996,2 53630  53.2167 166.8070 0001314  67.5130 292.6002 15.08849860 63966,6917.85,95.437,540.624,538.806,0.0
53630.0,STARLINK-4598,PAYLOAD,2023-10-22 21:08:36,15.0882877,0.0001359,53.2161,164.4292,69.1748,290.939,-9.2238e-05,-1.755e-05,0.0,0 STARLINK-4598,1 53630U 22104AU  23295.88097688 -.00001755  00000-0 -92238-4 0  9999,2 53630  53.2161 164.4292 0001359  69.1748 290.9390 15.08828770 64040,6917.915,95.438,540.72,538.84,0.0
53630.0,STARLINK-4598,PAYLOAD,2023-10-22 22:43:59,15.08819142,0.0001102,53.2159,164.1329,71.1704,288.9408,0.0010177,0.00015937,0.0,0 STARLINK-4598,1 53630U 22104AU  23295.94721964  .00015937  00000-0  10177-2 0  9992,2 53630  53.2159 164.1329 0001102  71.1704 288.9408 15.08819142 64912,6917.944,95.439,540.572,539.047,0.0
53630.0,STARLINK-4598,PAYLOAD,2023-10-23 22:34:47,15.08845743,0.0001443,53.2159,159.6718,62.4646,297.6493,0.0011021,0.00017298,0.0,0 STARLINK-4598,1 53630U 22104AU  23296.94082738  .00017298  00000-0  11021-2 0  9993,2 53630  53.2159 159.6718 0001443  62.4646 297.6493 15.08845743 65063,6917.863,95.437,540.726,538.73,0.0
53630.0,STARLINK-4598,PAYLOAD,2023-10-24 00:10:10,15.08847777,0.0001434,53.2159,159.3745,62.9488,297.1651,0.0010988,0.00017246,0.0,0 STARLINK-4598,1 53630U 22104AU  23297.00706711  .00017246  00000-0  10988-2 0  9999,2 53630  53.2159 159.3745 0001434  62.9488 297.1651 15.08847777 64215,6917.857,95.437,540.714,538.73,0.0
53630.0,STARLINK-4598,PAYLOAD,2023-10-24 08:07:06,15.08851793,0.0001323,53.2157,157.8876,69.4415,290.6719,0.00085572,0.00013361,0.0,0 STARLINK-4598,1 53630U 22104AU  23297.33826507  .00013361  00000-0  85572-3 0  9997,2 53630  53.2157 157.8876 0001323  69.4415 290.6719 15.08851793 65127,6917.844,95.437,540.625,538.794,0.0
53630.0,STARLINK-4598,PAYLOAD,2023-10-25 00:00:56,15.08868316,0.0001282,53.2152,154.9133,70.6151,289.498,0.00089915,0.00014062,0.0,0 STARLINK-4598,1 53630U 22104AU  23298.00065637  .00014062  00000-0  89915-3 0  9995,2 53630  53.2152 154.9133 0001282  70.6151 289.4980 15.08868316 64361,6917.794,95.436,540.546,538.772,0.0
53630.0,STARLINK-4598,PAYLOAD,2023-10-26 20:31:44,15.0884934,0.000129,53.2154,146.5838,85.3329,274.781,0.00012319,1.674e-05,0.0,0 STARLINK-4598,1 53630U 22104AU  23299.85537301  .00001674  00000-0  12319-3 0  9990,2 53630  53.2154 146.5838 0001290  85.3329 274.7810 15.08849340 65503,6917.852,95.437,540.609,538.824,0.0
53630.0,STARLINK-4598,PAYLOAD,2023-10-27 02:53:16,15.08852983,0.0001308,53.2157,145.3939,86.7828,273.3314,0.00030083,4.505e-05,0.0,0 STARLINK-4598,1 53630U 22104AU  23300.12033080  .00004505  00000-0  30083-3 0  9992,2 53630  53.2157 145.3939 0001308  86.7828 273.3314 15.08852983 64683,6917.841,95.437,540.611,538.801,0.0
53630.0,STARLINK-4598,PAYLOAD,2023-10-27 14:00:59,15.08837355,0.0001355,53.2155,143.3136,87.3633,272.7514,6.5199e-05,7.5e-06,0.0,0 STARLINK-4598,1 53630U 22104AU  23300.58401756  .00000750  00000-0  65199-4 0  9996,2 53630  53.2155 143.3136 0001355  87.3633 272.7514 15.08837355 65616,6917.888,95.438,540.691,538.816,0.0
53630.0,STARLINK-4598,PAYLOAD,2023-10-27 20:22:31,15.08839601,0.0001338,53.2154,142.1241,91.414,268.7006,0.00010054,1.313e-05,0.0,0 STARLINK-4598,1 53630U 22104AU  23300.84897704  .00001313  00000-0  10054-3 0  9992,2 53630  53.2154 142.1241 0001338  91.4140 268.7006 15.08839601 64794,6917.882,95.438,540.672,538.821,0.0
53630.0,STARLINK-4598,PAYLOAD,2023-10-27 23:33:18,15.08836702,0.0001243,53.2163,141.5321,92.0659,268.0476,3.2486e-05,2.29e-06,0.0,0 STARLINK-4598,1 53630U 22104AU  23300.98145839  .00000229  00000-0  32486-4 0  9991,2 53630  53.2163 141.5321 0001243  92.0659 268.0476 15.08836702 65674,6917.89,95.438,540.615,538.896,0.0
53630.0,STARLINK-4598,PAYLOAD,2023-10-28 20:13:18,15.08839729,0.0001252,53.2159,137.6672,92.8034,267.3102,5.9801e-05,6.64e-06,0.0,0 STARLINK-4598,1 53630U 22104AU  23301.84258090  .00000664  00000-0  59801-4 0  9994,2 53630  53.2159 137.6672 0001252  92.8034 267.3102 15.08839729 65804,6917.881,95.438,540.612,538.88,0.0
53630.0,STARLINK-4598,PAYLOAD,2023-10-29 20:04:05,15.08845042,0.0001366,53.2161,133.2068,99.0438,261.0709,0.0002656,3.942e-05,0.0,0 STARLINK-4598,1 53630U 22104AU  23302.83618039  .00003942  00000-0  26560-3 0  9994,2 53630  53.2161 133.2068 0001366  99.0438 261.0709 15.08845042 65956,6917.865,95.437,540.675,538.785,0.0
53630.0,STARLINK-4598,PAYLOAD,2023-10-29 23:14:52,15.08850827,0.0001284,53.2157,132.6107,94.1126,266.0012,0.00024877,3.675e-05,0.0,0 STARLINK-4598,1 53630U 22104AU  23302.96865744  .00003675  00000-0  24877-3 0  9997,2 53630  53.2157 132.6107 0001284  94.1126 266.0012 15.08850827 65114,6917.847,95.437,540.601,538.824,0.0
53630.0,STARLINK-4598,PAYLOAD,2023-10-30 05:36:24,15.08844597,0.0001215,53.2154,131.419,80.557,279.5559,0.00019041,2.744e-05,0.0,0 STARLINK-4598,1 53630U 22104AU  23303.23361855  .00002744  00000-0  19041-3 0  9995,2 53630  53.2154 131.4190 0001215  80.5570 279.5559 15.08844597 65152,6917.866,95.437,540.572,538.891,0.0
53630.0,STARLINK-4598,PAYLOAD,2023-10-30 16:44:07,15.08835216,0.0001276,53.2154,129.3386,83.7304,276.3834,-3.1291e-05,-7.86e-06,0.0,0 STARLINK-4598,1 53630U 22104AU  23303.69730492 -.00000786  00000-0 -31291-4 0  9990,2 53630  53.2154 129.3386 0001276  83.7304 276.3834 15.08835216 65229,6917.895,95.438,540.643,538.877,0.0
53630.0,STARLINK-4598,PAYLOAD,2023-10-30 21:30:16,15.08838463,0.000131,53.2151,128.4482,81.7514,278.3627,3.8017e-05,3.17e-06,0.0,0 STARLINK-4598,1 53630U 22104AU  23303.89602421  .00000317  00000-0  38017-4 0  9993,2 53630  53.2151 128.4482 0001310  81.7514 278.3627 15.08838463 66111,6917.885,95.438,540.656,538.844,0.0
53630.0,STARLINK-4598,PAYLOAD,2023-10-31 11:48:44,15.08843891,0.0001255,53.2153,125.7703,84.0265,276.087,5.7105e-05,6.21e-06,0.0,0 STARLINK-4598,1 53630U 22104AU  23304.49218132  .00000621  00000-0  57105-4 0  9999,2 53630  53.2153 125.7703 0001255  84.0265 276.0870 15.08843891 65346,6917.868,95.437,540.602,538.865,0.0
53630.0,STARLINK-4598,PAYLOAD,2023-10-31 19:45:39,15.08848734,0.0001228,53.215,124.2849,93.582,266.5312,0.00012193,1.654e-05,0.0,0 STARLINK-4598,1 53630U 22104AU  23304.82337805  .00001654  00000-0  12193-3 0  9999,2 53630  53.2150 124.2849 0001228  93.5820 266.5312 15.08848734 66257,6917.854,95.437,540.568,538.869,0.0
53630.0,STARLINK-4598,PAYLOAD,2023-11-01 05:17:59,15.08842545,0.000139,53.216,122.5001,82.7127,277.4023,4.9544e-05,5.01e-06,0.0,0 STARLINK-4598,1 53630U 22104AU  23305.22082199  .00000501  00000-0  49544-4 0  9998,2 53630  53.2160 122.5001 0001390  82.7127 277.4023 15.08842545 66310,6917.873,95.437,540.699,538.776,0.0
53630.0,STARLINK-4598,PAYLOAD,2023-11-01 19:36:27,15.08834855,0.000133,53.2159,119.8218,88.3671,271.7473,3.3472e-05,2.45e-06,0.0,0 STARLINK-4598,1 53630U 22104AU  23305.81698790  .00000245  00000-0  33472-4 0  9991,2 53630  53.2159 119.8218 0001330  88.3671 271.7473 15.08834855 65542,6917.896,95.438,540.681,538.841,0.0
53630.0,STARLINK-4598,PAYLOAD,2023-11-02 11:30:18,15.08841408,0.0001214,53.2162,116.8482,89.8371,270.276,0.00016279,2.304e-05,0.0,0 STARLINK-4598,1 53630U 22104AU  23306.47938573  .00002304  00000-0  16279-3 0  9993,2 53630  53.2162 116.8482 0001214  89.8371 270.2760 15.08841408 66502,6917.876,95.437,540.581,538.901,0.0
53630.0,STARLINK-4598,PAYLOAD,2023-11-02 17:51:51,15.0885008,0.0001321,53.2158,115.6597,86.129,273.9853,0.00016033,2.265e-05,0.0,0 STARLINK-4598,1 53630U 22104AU  23306.74434101  .00002265  00000-0  16033-3 0  9995,2 53630  53.2158 115.6597 0001321  86.1290 273.9853 15.08850080 65687,6917.85,95.437,540.628,538.801,0.0
53630.0,STARLINK-4598,PAYLOAD,2023-11-03 01:48:47,15.08837474,0.0001499,53.2155,114.1733,79.8287,280.2874,7.5702e-06,-1.68e-06,0.0,0 STARLINK-4598,1 53630U 22104AU  23307.07554651 -.00000168  00000-0  75702-5 0  9996,2 53630  53.2155 114.1733 0001499  79.8287 280.2874 15.08837474 65733,6917.888,95.438,540.79,538.716,0.0
53630.0,STARLINK-4598,PAYLOAD,2023-11-03 14:31:52,15.08847025,0.0001437,53.2155,111.7941,90.1337,269.9819,0.00026852,3.989e-05,0.0,0 STARLINK-4598,1 53630U 22104AU  23307.60546364  .00003989  00000-0  26852-3 0  9990,2 53630  53.2155 111.7941 0001437  90.1337 269.9819 15.08847025 66671,6917.859,95.437,540.718,538.73,0.0
53630.0,STARLINK-4598,PAYLOAD,2023-11-03 20:53:24,15.08852181,0.0001391,53.2162,110.6047,88.7846,271.3305,0.00050005,7.682e-05,0.0,0 STARLINK-4598,1 53630U 22104AU  23307.87042080  .00007682  00000-0  50005-3 0  9996,2 53630  53.2162 110.6047 0001391  88.7846 271.3305 15.08852181 65856,6917.843,95.437,540.67,538.746,0.0
53630.0,STARLINK-4598,PAYLOAD,2023-11-04 14:22:39,15.08846244,0.0001387,53.2165,107.3338,93.7286,266.3865,0.0004624,7.08e-05,0.0,0 STARLINK-4598,1 53630U 22104AU  23308.59906255  .00007080  00000-0  46240-3 0  9997,2 53630  53.2165 107.3338 0001387  93.7286 266.3865 15.08846244 66820,6917.861,95.437,540.686,538.767,0.0
53630.0,STARLINK-4598,PAYLOAD,2023-11-04 17:33:25,15.08849929,0.0001273,53.2166,106.7391,90.1461,269.9677,0.00067971,0.00010549,0.0,0 STARLINK-4598,1 53630U 22104AU  23308.73154202  .00010549  00000-0  67971-3 0  9998,2 53630  53.2166 106.7391 0001273  90.1461 269.9677 15.08849929 65982,6917.85,95.437,540.596,538.834,0.0
53630.0,STARLINK-4598,PAYLOAD,2023-11-05 11:02:39,15.0885246,0.0001702,53.2166,103.4683,92.2708,267.8479,0.00053384,8.221e-05,0.0,0 STARLINK-4598,1 53630U 22104AU  23309.46018010  .00008221  00000-0  53384-3 0  9992,2 53630  53.2166 103.4683 0001702  92.2708 267.8479 15.08852460 66098,6917.842,95.437,540.885,538.53,0.0
